{
  "type": "FeatureCollection",
  "features": [
    {
      "type": "Feature",
      "properties": {
        "norad_id": 30218,
        "name": "FENGYUN 1C DEB",
        "group": "fengyun-1c-debris",
        "lat": 77.23366366691809,
        "lon": 40.5613693220771,
        "alt_km": 831.423441018811,
        "timestamp": "2025-12-21T05:44:51.860610+00:00",
        "meta_object_name": "FENGYUN 1C DEB",
        "meta_object_id": "1999-025WB",
        "meta_epoch": "2025-12-18T05:14:14.517312",
        "meta_mean_motion": 14.28872853,
        "meta_eccentricity": 0.00708922,
        "meta_inclination": 98.9877,
        "meta_ra_of_asc_node": 81.7565,
        "meta_arg_of_pericenter": 238.3135,
        "meta_mean_anomaly": 150.3932,
        "meta_ephemeris_type": 0,
        "meta_classification_type": "U",
        "meta_norad_cat_id": 30218,
        "meta_element_set_no": 999,
        "meta_rev_at_epoch": 97187,
        "meta_bstar": 0.0020912898,
        "meta_mean_motion_dot": 5.378e-05,
        "meta_mean_motion_ddot": 0,
        "tle_line1": "1 30218U 99025WB  25352.21822358  .00005378  00000+0  20913-2 0  9996",
        "tle_line2": "2 30218  98.9877  81.7565 0070892 238.3135 150.3932 14.28872853971870"
      },
      "geometry": {
        "type": "Point",
        "coordinates": [
          40.5613693220771,
          77.23366366691809
        ]
      }
    },
    {
      "type": "Feature",
      "properties": {
        "norad_id": 30221,
        "name": "FENGYUN 1C DEB",
        "group": "fengyun-1c-debris",
        "lat": 27.299637765445386,
        "lon": -91.95310959626059,
        "alt_km": 811.885122136252,
        "timestamp": "2025-12-21T05:44:51.860620+00:00",
        "meta_object_name": "FENGYUN 1C DEB",
        "meta_object_id": "1999-025WE",
        "meta_epoch": "2025-12-20T19:05:17.290464",
        "meta_mean_motion": 14.45825708,
        "meta_eccentricity": 0.01450363,
        "meta_inclination": 98.956,
        "meta_ra_of_asc_node": 82.9094,
        "meta_arg_of_pericenter": 17.4265,
        "meta_mean_anomaly": 343.1828,
        "meta_ephemeris_type": 0,
        "meta_classification_type": "U",
        "meta_norad_cat_id": 30221,
        "meta_element_set_no": 999,
        "meta_rev_at_epoch": 99517,
        "meta_bstar": 0.00013412909,
        "meta_mean_motion_dot": 4.86e-06,
        "meta_mean_motion_ddot": 0,
        "tle_line1": "1 30221U 99025WE  25354.79533901  .00000486  00000+0  13413-3 0  9991",
        "tle_line2": "2 30221  98.9560  82.9094 0145036  17.4265 343.1828 14.45825708995177"
      },
      "geometry": {
        "type": "Point",
        "coordinates": [
          -91.95310959626059,
          27.299637765445386
        ]
      }
    },
    {
      "type": "Feature",
      "properties": {
        "norad_id": 30222,
        "name": "FENGYUN 1C DEB",
        "group": "fengyun-1c-debris",
        "lat": -67.2620316802536,
        "lon": 50.19240953859444,
        "alt_km": 883.250272754739,
        "timestamp": "2025-12-21T05:44:51.860630+00:00",
        "meta_object_name": "FENGYUN 1C DEB",
        "meta_object_id": "1999-025WF",
        "meta_epoch": "2025-12-20T01:17:13.707168",
        "meta_mean_motion": 14.04075621,
        "meta_eccentricity": 0.00375283,
        "meta_inclination": 98.8401,
        "meta_ra_of_asc_node": 27.2408,
        "meta_arg_of_pericenter": 16.8415,
        "meta_mean_anomaly": 43.8507,
        "meta_ephemeris_type": 0,
        "meta_classification_type": "U",
        "meta_norad_cat_id": 30222,
        "meta_element_set_no": 999,
        "meta_rev_at_epoch": 96941,
        "meta_bstar": 0.0001049658,
        "meta_mean_motion_dot": 1.24e-06,
        "meta_mean_motion_ddot": 0,
        "tle_line1": "1 30222U 99025WF  25354.05363087  .00000124  00000+0  10497-3 0  9995",
        "tle_line2": "2 30222  98.8401  27.2408 0037528  16.8415  43.8507 14.04075621969410"
      },
      "geometry": {
        "type": "Point",
        "coordinates": [
          50.19240953859444,
          -67.2620316802536
        ]
      }
    },
    {
      "type": "Feature",
      "properties": {
        "norad_id": 30224,
        "name": "FENGYUN 1C DEB",
        "group": "fengyun-1c-debris",
        "lat": 40.66203616566088,
        "lon": 25.892500242325013,
        "alt_km": 912.2060843973195,
        "timestamp": "2025-12-21T05:44:51.860640+00:00",
        "meta_object_name": "FENGYUN 1C DEB",
        "meta_object_id": "1999-025WH",
        "meta_epoch": "2025-12-20T23:12:55.082016",
        "meta_mean_motion": 13.89873625,
        "meta_eccentricity": 0.01109917,
        "meta_inclination": 99.4829,
        "meta_ra_of_asc_node": 33.8697,
        "meta_arg_of_pericenter": 321.1548,
        "meta_mean_anomaly": 157.8588,
        "meta_ephemeris_type": 0,
        "meta_classification_type": "U",
        "meta_norad_cat_id": 30224,
        "meta_element_set_no": 999,
        "meta_rev_at_epoch": 95855,
        "meta_bstar": 0.00029009004,
        "meta_mean_motion_dot": 3.28e-06,
        "meta_mean_motion_ddot": 0,
        "tle_line1": "1 30224U 99025WH  25354.96730419  .00000328  00000+0  29009-3 0  9999",
        "tle_line2": "2 30224  99.4829  33.8697 0110991 321.1548 157.8588 13.89873625958551"
      },
      "geometry": {
        "type": "Point",
        "coordinates": [
          25.892500242325013,
          40.66203616566088
        ]
      }
    },
    {
      "type": "Feature",
      "properties": {
        "norad_id": 30225,
        "name": "FENGYUN 1C DEB",
        "group": "fengyun-1c-debris",
        "lat": -78.33482233981204,
        "lon": 154.1926995145739,
        "alt_km": 916.859476947795,
        "timestamp": "2025-12-21T05:44:51.860650+00:00",
        "meta_object_name": "FENGYUN 1C DEB",
        "meta_object_id": "1999-025WJ",
        "meta_epoch": "2025-12-19T00:15:57.318048",
        "meta_mean_motion": 14.15188349,
        "meta_eccentricity": 0.010038,
        "meta_inclination": 98.6591,
        "meta_ra_of_asc_node": 19.6,
        "meta_arg_of_pericenter": 68.1666,
        "meta_mean_anomaly": 7.7254,
        "meta_ephemeris_type": 0,
        "meta_classification_type": "U",
        "meta_norad_cat_id": 30225,
        "meta_element_set_no": 999,
        "meta_rev_at_epoch": 97625,
        "meta_bstar": 0.00014005753,
        "meta_mean_motion_dot": 2.44e-06,
        "meta_mean_motion_ddot": 0,
        "tle_line1": "1 30225U 99025WJ  25353.01108007  .00000244  00000+0  14006-3 0  9995",
        "tle_line2": "2 30225  98.6591  19.6000 0100380  68.1666   7.7254 14.15188349976251"
      },
      "geometry": {
        "type": "Point",
        "coordinates": [
          154.1926995145739,
          -78.33482233981204
        ]
      }
    },
    {
      "type": "Feature",
      "properties": {
        "norad_id": 30229,
        "name": "FENGYUN 1C DEB",
        "group": "fengyun-1c-debris",
        "lat": 80.93116785897641,
        "lon": -33.46227273697653,
        "alt_km": 676.9140856216218,
        "timestamp": "2025-12-21T05:44:51.860660+00:00",
        "meta_object_name": "FENGYUN 1C DEB",
        "meta_object_id": "1999-025WN",
        "meta_epoch": "2025-12-20T15:14:52.537920",
        "meta_mean_motion": 14.60664224,
        "meta_eccentricity": 0.0037039,
        "meta_inclination": 99.0619,
        "meta_ra_of_asc_node": 55.0036,
        "meta_arg_of_pericenter": 16.1683,
        "meta_mean_anomaly": 138.2126,
        "meta_ephemeris_type": 0,
        "meta_classification_type": "U",
        "meta_norad_cat_id": 30229,
        "meta_element_set_no": 999,
        "meta_rev_at_epoch": 99041,
        "meta_bstar": 0.0010399,
        "meta_mean_motion_dot": 5.058e-05,
        "meta_mean_motion_ddot": 0,
        "tle_line1": "1 30229U 99025WN  25354.63533030  .00005058  00000+0  10399-2 0  9994",
        "tle_line2": "2 30229  99.0619  55.0036 0037039  16.1683 138.2126 14.60664224990419"
      },
      "geometry": {
        "type": "Point",
        "coordinates": [
          -33.46227273697653,
          80.93116785897641
        ]
      }
    },
    {
      "type": "Feature",
      "properties": {
        "norad_id": 30231,
        "name": "FENGYUN 1C DEB",
        "group": "fengyun-1c-debris",
        "lat": -74.72262880916327,
        "lon": -174.72985901837217,
        "alt_km": 888.1309211690013,
        "timestamp": "2025-12-21T05:44:51.860670+00:00",
        "meta_object_name": "FENGYUN 1C DEB",
        "meta_object_id": "1999-025WQ",
        "meta_epoch": "2025-12-20T17:12:44.415072",
        "meta_mean_motion": 14.11660896,
        "meta_eccentricity": 0.01280461,
        "meta_inclination": 98.8048,
        "meta_ra_of_asc_node": 39.3291,
        "meta_arg_of_pericenter": 6.6662,
        "meta_mean_anomaly": 119.2958,
        "meta_ephemeris_type": 0,
        "meta_classification_type": "U",
        "meta_norad_cat_id": 30231,
        "meta_element_set_no": 999,
        "meta_rev_at_epoch": 97132,
        "meta_bstar": 0.00043248704,
        "meta_mean_motion_dot": 8.06e-06,
        "meta_mean_motion_ddot": 0,
        "tle_line1": "1 30231U 99025WQ  25354.71718073  .00000806  00000+0  43249-3 0  9995",
        "tle_line2": "2 30231  98.8048  39.3291 0128046   6.6662 119.2958 14.11660896971321"
      },
      "geometry": {
        "type": "Point",
        "coordinates": [
          -174.72985901837217,
          -74.72262880916327
        ]
      }
    }
  ]
}